{"type": "FeatureCollection", "features": [ {"type": "Feature", "properties": {"norad_id": 30369, "name": "FENGYUN 1C DEB", "group": "fengyun-1c-debris", "lat": 16.622372895185304, "lon": 168.86521099294782, "alt_km": 788.3000443624751, "timestamp": "2025-12-14T22:38:41.033918+00:00", "meta": {"OBJECT_NAME": "FENGYUN 1C DEB", "OBJECT_ID": "1999-025ACG", "EPOCH": "2025-12-13T22:21:54.973728", "MEAN_MOTION": 14.12058354, "ECCENTRICITY": 0.0099237, "INCLINATION": 98.7214, "RA_OF_ASC_NODE": 345.2546, "ARG_OF_PERICENTER": 192.1105, "MEAN_ANOMALY": 231.7267, "EPHEMERIS_TYPE": 0, "CLASSIFICATION_TYPE": "U", "NORAD_CAT_ID": 30369, "ELEMENT_SET_NO": 999, "REV_AT_EPOCH": 97263, "BSTAR": 0.00027333008, "MEAN_MOTION_DOT": 4.82e-06, "MEAN_MOTION_DDOT": 0}, "tle": {"line1": "1 30369U 99025ACG 25347.93188627  .00000482  00000+0  27333-3 0  9995", "line2": "2 30369  98.7214 345.2546 0099237 192.1105 231.7267 14.12058354972630"}}, "geometry": {"type": "Point", "coordinates": [168.86521099294782, 16.622372895185304]}}, {"type": "Feature", "properties": {"norad_id": 30370, "name": "FENGYUN 1C DEB", "group": "fengyun-1c-debris", "lat": 35.04286764830898, "lon": -128.63643845762255, "alt_km": 895.3452867650949, "timestamp": "2025-12-14T22:38:41.033929+00:00", "meta": {"OBJECT_NAME": "FENGYUN 1C DEB", "OBJECT_ID": "1999-025ACH", "EPOCH": "2025-12-14T03:36:04.937760", "MEAN_MOTION": 14.19160841, "ECCENTRICITY": 0.00992602, "INCLINATION": 99.0571, "RA_OF_ASC_NODE": 44.1299, "ARG_OF_PERICENTER": 313.2637, "MEAN_ANOMALY": 99.7725, "EPHEMERIS_TYPE": 0, "CLASSIFICATION_TYPE": "U", "NORAD_CAT_ID": 30370, "ELEMENT_SET_NO": 999, "REV_AT_EPOCH": 97114, "BSTAR": 0.0014017525, "MEAN_MOTION_DOT": 3.036e-05, "MEAN_MOTION_DDOT": 0}, "tle": {"line1": "1 30370U 99025ACH 25348.15005715  .00003036  00000+0  14018-2 0  9991", "line2": "2 30370  99.0571  44.1299 0099260 313.2637  99.7725 14.19160841971142"}}, "geometry": {"type": "Point", "coordinates": [-128.63643845762255, 35.04286764830898]}}, {"type": "Feature", "properties": {"norad_id": 30371, "name": "FENGYUN 1C DEB", "group": "fengyun-1c-debris", "lat": -67.96685724095896, "lon": -169.9813895667561, "alt_km": 797.295967958371, "timestamp": "2025-12-14T22:38:41.033939+00:00", "meta": {"OBJECT_NAME": "FENGYUN 1C DEB", "OBJECT_ID": "1999-025ACJ", "EPOCH": "2025-12-13T14:17:57.513120", "MEAN_MOTION": 14.30238871, "ECCENTRICITY": 0.00068844, "INCLINATION": 98.5767, "RA_OF_ASC_NODE": 30.5857, "ARG_OF_PERICENTER": 333.7853, "MEAN_ANOMALY": 180.5652, "EPHEMERIS_TYPE": 0, "CLASSIFICATION_TYPE": "U", "NORAD_CAT_ID": 30371, "ELEMENT_SET_NO": 999, "REV_AT_EPOCH": 97915, "BSTAR": 0.0013557862, "MEAN_MOTION_DOT": 3.472e-05, "MEAN_MOTION_DDOT": 0}, "tle": {"line1": "1 30371U 99025ACJ 25347.59580455  .00003472  00000+0  13558-2 0  9990", "line2": "2 30371  98.5767  30.5857 0006884 333.7853 180.5652 14.30238871979159"}}, "geometry": {"type": "Point", "coordinates": [-169.9813895667561, -67.96685724095896]}}, {"type": "Feature", "properties": {"norad_id": 30374, "name": "FENGYUN 1C DEB", "group": "fengyun-1c-debris", "lat": -41.53565716067599, "lon": 24.421950084306552, "alt_km": 681.8170238588609, "timestamp": "2025-12-14T22:38:41.033949+00:00", "meta": {"OBJECT_NAME": "FENGYUN 1C DEB", "OBJECT_ID": "1999-025ACM", "EPOCH": "2025-12-14T07:08:10.289184", "MEAN_MOTION": 14.61315301, "ECCENTRICITY": 0.00393604, "INCLINATION": 99.2731, "RA_OF_ASC_NODE": 212.0201, "ARG_OF_PERICENTER": 163.2012, "MEAN_ANOMALY": 261.0364, "EPHEMERIS_TYPE": 0, "CLASSIFICATION_TYPE": "U", "NORAD_CAT_ID": 30374, "ELEMENT_SET_NO": 999, "REV_AT_EPOCH": 98945, "BSTAR": 0.0016405833, "MEAN_MOTION_DOT": 8.141e-05, "MEAN_MOTION_DDOT": 0}, "tle": {"line1": "1 30374U 99025ACM 25348.29734131  .00008141  00000+0  16406-2 0  9996", "line2": "2 30374  99.2731 212.0201 0039360 163.2012 261.0364 14.61315301989456"}}, "geometry": {"type": "Point", "coordinates": [24.421950084306552, -41.53565716067599]}}, {"type": "Feature", "properties": {"norad_id": 30377, "name": "FENGYUN 1C DEB", "group": "fengyun-1c-debris", "lat": -65.5579637202278, "lon": 168.22108223727932, "alt_km": 820.2206033205948, "timestamp": "2025-12-14T22:38:41.033959+00:00", "meta": {"OBJECT_NAME": "FENGYUN 1C DEB", "OBJECT_ID": "1999-025ACQ", "EPOCH": "2025-12-14T07:49:24.714336", "MEAN_MOTION": 13.99173035, "ECCENTRICITY": 0.01180897, "INCLINATION": 98.8934, "RA_OF_ASC_NODE": 7.7726, "ARG_OF_PERICENTER": 262.2346, "MEAN_ANOMALY": 116.2649, "EPHEMERIS_TYPE": 0, "CLASSIFICATION_TYPE": "U", "NORAD_CAT_ID": 30377, "ELEMENT_SET_NO": 999, "REV_AT_EPOCH": 96229, "BSTAR": 0.00040900972, "MEAN_MOTION_DOT": 5.86e-06, "MEAN_MOTION_DDOT": 0}, "tle": {"line1": "1 30377U 99025ACQ 25348.32598049  .00000586  00000+0  40901-3 0  9992", "line2": "2 30377  98.8934   7.7726 0118089 262.2346 116.2649 13.99173035962292"}}, "geometry": {"type": "Point", "coordinates": [168.22108223727932, -65.5579637202278]}}, {"type": "Feature", "properties": {"norad_id": 30379, "name": "FENGYUN 1C DEB", "group": "fengyun-1c-debris", "lat": 73.22424327489959, "lon": -27.136251956985813, "alt_km": 883.6199932245881, "timestamp": "2025-12-14T22:38:41.033969+00:00", "meta": {"OBJECT_NAME": "FENGYUN 1C DEB", "OBJECT_ID": "1999-025ACS", "EPOCH": "2025-12-14T00:22:27.012288", "MEAN_MOTION": 14.080359, "ECCENTRICITY": 0.00355266, "INCLINATION": 98.7582, "RA_OF_ASC_NODE": 2.7192, "ARG_OF_PERICENTER": 275.5555, "MEAN_ANOMALY": 138.941, "EPHEMERIS_TYPE": 0, "CLASSIFICATION_TYPE": "U", "NORAD_CAT_ID": 30379, "ELEMENT_SET_NO": 999, "REV_AT_EPOCH": 96835, "BSTAR": 0.00032103171, "MEAN_MOTION_DOT": 5.06e-06, "MEAN_MOTION_DDOT": 0}, "tle": {"line1": "1 30379U 99025ACS 25348.01559042  .00000506  00000+0  32103-3 0  9997", "line2": "2 30379  98.7582   2.7192 0035526 275.5555 138.9410 14.08035900968356"}}, "geometry": {"type": "Point", "coordinates": [-27.136251956985813, 73.22424327489959]}}, {"type": "Feature", "properties": {"norad_id": 30380, "name": "FENGYUN 1C DEB", "group": "fengyun-1c-debris", "lat": 81.04306051913859, "lon": -48.0731938193831, "alt_km": 780.3276563964064, "timestamp": "2025-12-14T22:38:41.033979+00:00", "meta": {"OBJECT_NAME": "FENGYUN 1C DEB", "OBJECT_ID": "1999-025ACT", "EPOCH": "2025-12-14T02:21:27.640512", "MEAN_MOTION": 14.50673019, "ECCENTRICITY": 0.01775544, "INCLINATION": 98.9145, "RA_OF_ASC_NODE": 35.8017, "ARG_OF_PERICENTER": 213.2829, "MEAN_ANOMALY": 145.7098, "EPHEMERIS_TYPE": 0, "CLASSIFICATION_TYPE": "U", "NORAD_CAT_ID": 30380, "ELEMENT_SET_NO": 999, "REV_AT_EPOCH": 99585, "BSTAR": 0.00036062911, "MEAN_MOTION_DOT": 1.675e-05, "MEAN_MOTION_DDOT": 0}, "tle": {"line1": "1 30380U 99025ACT 25348.09823658  .00001675  00000+0  36063-3 0  9991", "line2": "2 30380  98.9145  35.8017 0177554 213.2829 145.7098 14.50673019995858"}}, "geometry": {"type": "Point", "coordinates": [-48.0731938193831, 81.04306051913859]}}, {"type": "Feature", "properties": {"norad_id": 30381, "name": "FENGYUN 1C DEB", "group": "fengyun-1c-debris", "lat": 60.185100442932324, "lon": -140.3903028104084, "alt_km": 817.1824626616735, "timestamp": "2025-12-14T22:38:41.033990+00:00", "meta": {"OBJECT_NAME": "FENGYUN 1C DEB", "OBJECT_ID": "1999-025ACU", "EPOCH": "2025-12-10T12:43:11.568000", "MEAN_MOTION": 14.12931, "ECCENTRICITY": 0.0054669, "INCLINATION": 98.8137, "RA_OF_ASC_NODE": 19.557, "ARG_OF_PERICENTER": 82.3976, "MEAN_ANOMALY": 278.3401, "EPHEMERIS_TYPE": 0, "CLASSIFICATION_TYPE": "U", "NORAD_CAT_ID": 30381, "ELEMENT_SET_NO": 999, "REV_AT_EPOCH": 92135, "BSTAR": 0.001434, "MEAN_MOTION_DOT": 2.666e-05, "MEAN_MOTION_DDOT": 0}, "tle": {"line1": "1 30381U 99025ACU 25344.52999500  .00002666  00000+0  14340-2 0  9990", "line2": "2 30381  98.8137  19.5570 0054669  82.3976 278.3401 14.12931000921351"}}, "geometry": {"type": "Point", "coordinates": [-140.3903028104084, 60.185100442932324]}}, {"type": "Feature", "properties": {"norad_id": 30382, "name": "FENGYUN 1C DEB", "group": "fengyun-1c-debris", "lat": -19.903620387248704, "lon": -155.85324287032083, "alt_km": 908.9710328142291, "timestamp": "2025-12-14T22:38:41.034000+00:00", "meta": {"OBJECT_NAME": "FENGYUN 1C DEB", "OBJECT_ID": "1999-025ACV", "EPOCH": "2025-12-14T08:30:55.280736", "MEAN_MOTION": 14.25298218, "ECCENTRICITY": 0.01546518, "INCLINATION": 98.4996, "RA_OF_ASC_NODE": 26.6798, "ARG_OF_PERICENTER": 352.2984, "MEAN_ANOMALY": 69.5346, "EPHEMERIS_TYPE": 0, "CLASSIFICATION_TYPE": "U", "NORAD_CAT_ID": 30382, "ELEMENT_SET_NO": 999, "REV_AT_EPOCH": 97558, "BSTAR": 0.0010007187, "MEAN_MOTION_DOT": 2.626e-05, "MEAN_MOTION_DDOT": 0}, "tle": {"line1": "1 30382U 99025ACV 25348.35480649  .00002626  00000+0  10007-2 0  9997", "line2": "2 30382  98.4996  26.6798 0154651 352.2984  69.5346 14.25298218975585"}}, "geometry": {"type": "Point", "coordinates": [-155.85324287032083, -19.903620387248704]}}, {"type": "Feature", "properties": {"norad_id": 30385, "name": "FENGYUN 1C DEB", "group": "fengyun-1c-debris", "lat": -78.054339140126, "lon": 140.65832451049874, "alt_km": 686.4683907740427, "timestamp": "2025-12-14T22:38:41.034009+00:00", "meta": {"OBJECT_NAME": "FENGYUN 1C DEB", "OBJECT_ID": "1999-025ACY", "EPOCH": "2025-12-14T08:07:09.463008", "MEAN_MOTION": 14.38790941, "ECCENTRICITY": 0.01246454, "INCLINATION": 99.0818, "RA_OF_ASC_NODE": 9.1343, "ARG_OF_PERICENTER": 284.8298, "MEAN_ANOMALY": 84.7868, "EPHEMERIS_TYPE": 0, "CLASSIFICATION_TYPE": "U", "NORAD_CAT_ID": 30385, "ELEMENT_SET_NO": 999, "REV_AT_EPOCH": 98792, "BSTAR": 0.00038913239, "MEAN_MOTION_DOT": 1.255e-05, "MEAN_MOTION_DDOT": 0}, "tle": {"line1": "1 30385U 99025ACY 25348.33830397  .00001255  00000+0  38913-3 0  9991", "line2": "2 30385  99.0818   9.1343 0124645 284.8298  84.7868 14.38790941987921"}}, "geometry": {"type": "Point", "coordinates": [140.65832451049874, -78.054339140126]}}]}